OBJECT_NAME,OBJECT_ID,EPOCH,MEAN_MOTION,ECCENTRICITY,INCLINATION,RA_OF_ASC_NODE,ARG_OF_PERICENTER,MEAN_ANOMALY,EPHEMERIS_TYPE,CLASSIFICATION_TYPE,NORAD_CAT_ID,ELEMENT_SET_NO,REV_AT_EPOCH,BSTAR,MEAN_MOTION_DOT,MEAN_MOTION_DDOT
ALOS-2,2014-029A,2026-06-06T14:07:21.006912,14.79468145,.00016862,97.9212,254.9043,90.6166,269.5239,0,U,39766,999,65001,.26746623E-3,.1946E-4,0
KAZEOSAT 2,2014-033A,2026-06-06T14:05:22.765056,14.85459480,.00088739,97.5410,357.7588,5.3947,354.7363,0,U,40010,999,64738,.14474209E-3,.1199E-4,0
HODOYOSHI-4,2014-033B,2026-06-06T14:40:58.859040,14.88105813,.00233895,97.5454,342.9448,344.8023,15.2489,0,U,40011,999,64723,.20637435E-3,.1856E-4,0
DEIMOS-2,2014-033D,2026-06-06T14:22:25.387680,14.93695064,.00019692,97.5835,32.4585,61.4537,298.6881,0,U,40013,999,63614,.17304816E-3,.1776E-4,0
HODOYOSHI-3,2014-033F,2026-06-06T09:45:43.167168,14.85366576,.00336104,97.6410,320.8823,32.4637,327.8637,0,U,40015,999,64602,.14675705E-3,.1223E-4,0
SPOT 7,2014-034A,2026-06-06T13:34:40.503648,14.60949341,.00011844,98.0628,220.3307,82.5465,277.5871,0,U,40053,999,63558,.10383669E-3,.463E-5,0
SKYSAT-B,2014-037D,2026-06-06T10:23:55.887936,14.88000228,.00047108,98.3832,115.7857,325.7735,34.3175,0,U,40072,999,64436,.18512884E-3,.1638E-4,0
WORLDVIEW-3 (WV-3),2014-048A,2026-06-06T12:30:32.810976,14.85004655,.0001772,97.8567,232.5013,42.1406,317.9944,0,U,40115,999,64032,.12235006E-3,.99E-5,0
GAOFEN-2,2014-049A,2026-06-06T15:15:29.465280,14.80887632,.00058632,98.0108,221.8528,269.6652,90.3888,0,U,40118,999,63767,.64315567E-4,.443E-5,0
YAOGAN-21,2014-053A,2026-06-06T13:00:13.159872,15.26217572,.00097164,97.1477,198.2359,123.4520,236.7649,0,U,40143,999,65333,.4180277E-3,.1077E-3,0
YAOGAN-22,2014-063A,2026-06-06T03:47:55.780800,13.15530683,.00060916,100.7711,308.2489,210.5823,149.4933,0,U,40275,999,55836,.5662807E-4,-.25E-6,0
ASNARO,2014-070A,2026-06-06T13:20:31.405056,15.19278800,.00045694,97.3450,233.9592,201.9188,158.1853,0,U,40298,999,64239,.52238923E-3,.10963E-3,0
YAOGAN-24,2014-072A,2026-06-06T15:26:58.530336,14.76209570,.00127912,98.1481,294.8933,301.2045,58.7910,0,U,40310,999,62216,.11690018E-3,.756E-5,0
CBERS 4,2014-079A,2026-06-06T13:57:57.077568,14.35506703,.00020681,98.3531,214.7460,73.9931,286.1482,0,U,40336,999,60243,.84464804E-4,.201E-5,0
YAOGAN-26,2014-088A,2026-06-06T14:11:06.350208,15.46904875,.00066975,97.0650,158.0511,90.9034,269.2984,0,U,40362,999,63606,.19298931E-3,.9632E-4,0
SMAP,2015-003A,2026-06-06T13:11:51.617472,14.63357344,.0001261,98.1276,164.7952,91.6170,268.5177,0,U,40376,999,60606,.10427485E-3,.492E-5,0
KOMPSAT-3A,2015-014A,2026-06-06T14:46:12.086688,15.53512140,.00555722,97.6890,148.2090,213.0313,146.7465,0,U,40536,999,62017,.41312401E-3,.28005E-3,0
SENTINEL-2A,2015-028A,2026-06-06T14:02:51.373248,14.30821241,.00010861,98.5681,232.5871,85.5004,274.6303,0,U,40697,999,57221,.86040004E-4,.182E-5,0
GAOFEN-8,2015-030A,2026-06-06T14:24:58.453056,15.45578335,.00080234,97.6916,350.3383,225.8343,134.2246,0,U,40701,999,60981,.75172373E-3,.36211E-3,0
CARBONITE 1 (CBNT-1),2015-032D,2026-06-06T15:51:41.011776,14.83556943,.00138713,97.6506,336.1686,335.3674,24.6876,0,U,40718,999,58778,.30135109E-3,.2435E-4,0
YAOGAN-27,2015-040A,2026-06-06T14:43:44.055840,13.16070430,.00074429,100.1154,144.4558,237.2105,122.8292,0,U,40878,999,51627,.44098568E-3,.125E-5,0
GAOFEN-9 01,2015-047A,2026-06-06T14:28:57.391392,14.82863611,.00275516,97.6285,193.7788,171.6397,188.5282,0,U,40894,999,57862,.13520103E-3,.1051E-4,0
YAOGAN-28,2015-064A,2026-06-06T15:27:05.560704,15.27282610,.00097164,97.3065,296.1224,222.0442,138.0053,0,U,41026,999,58907,.31885445E-3,.8462E-4,0
YAOGAN-29,2015-069A,2026-06-06T15:39:58.536576,14.83079423,.00029984,98.0029,186.2692,70.6560,289.4977,0,U,41038,999,56906,.14534979E-3,.1129E-4,0
KENT RIDGE 1,2015-077B,2026-06-06T03:52:43.457376,15.23064317,.00083084,14.9812,347.9786,82.2987,277.8279,0,U,41167,999,57941,.16723478E-3,.4828E-4,0
GAOFEN-4,2015-083A,2026-06-06T13:58:28.452000,1.00269232,.00043571,0.3296,83.7646,108.9334,17.6044,0,U,41194,999,3842,0,-.321E-5,0
JASON-3,2016-002A,2026-06-06T14:16:36.799104,12.87627761,.00085941,66.0390,148.1044,273.2081,86.7954,0,U,41240,999,48588,.37967427E-4,-.53E-6,0
SENTINEL-3A,2016-011A,2026-06-06T15:02:48.953472,14.26737149,.00013409,98.6250,225.1618,104.7871,255.3459,0,U,41335,999,53655,.70465861E-4,.127E-5,0
ZIYUAN 3-02 (ZY 3-02),2016-033A,2026-06-06T14:25:07.893120,15.21379433,.00117839,97.3831,233.5773,331.6536,28.4057,0,U,41556,999,55637,.29466889E-3,.655E-4,0
CARTOSAT-2C,2016-040A,2026-06-06T14:06:59.084640,15.19231812,.00095653,97.4481,217.7117,164.9487,195.2034,0,U,41599,999,55210,.22273812E-3,.4629E-4,0
