ALOS-2                  
1 39766U 14029A   26157.58843758  .00001946  00000+0  26747-3 0  9994
2 39766  97.9212 254.9043 0001686  90.6166 269.5239 14.79468145650016
KAZEOSAT 2              
1 40010U 14033A   26157.58706904  .00001199  00000+0  14474-3 0  9998
2 40010  97.5410 357.7588 0008873   5.3947 354.7363 14.85459480647387
HODOYOSHI-4             
1 40011U 14033B   26157.61179235  .00001856  00000+0  20637-3 0  9992
2 40011  97.5454 342.9448 0023389 344.8023  15.2489 14.88105813647235
DEIMOS-2                
1 40013U 14033D   26157.59890495  .00001776  00000+0  17305-3 0  9998
2 40013  97.5835  32.4585 0001969  61.4537 298.6881 14.93695064636144
HODOYOSHI-3             
1 40015U 14033F   26157.40674962  .00001223  00000+0  14676-3 0  9994
2 40015  97.6410 320.8823 0033610  32.4637 327.8637 14.85366576646028
SPOT 7                  
1 40053U 14034A   26157.56574657  .00000463  00000+0  10384-3 0  9991
2 40053  98.0628 220.3307 0001184  82.5465 277.5871 14.60949341635583
SKYSAT-B                
1 40072U 14037D   26157.43328574  .00001638  00000+0  18513-3 0  9993
2 40072  98.3832 115.7857 0004710 325.7735  34.3175 14.88000228644365
WORLDVIEW-3 (WV-3)      
1 40115U 14048A   26157.52121309  .00000990  00000+0  12235-3 0  9995
2 40115  97.8567 232.5013 0001772  42.1406 317.9944 14.85004655640325
GAOFEN-2                
1 40118U 14049A   26157.63575770  .00000443  00000+0  64316-4 0  9997
2 40118  98.0108 221.8528 0005863 269.6652  90.3888 14.80887632637670
YAOGAN-21               
1 40143U 14053A   26157.54181898  .00010770  00000+0  41803-3 0  9993
2 40143  97.1477 198.2359 0009716 123.4520 236.7649 15.26217572653331
YAOGAN-22               
1 40275U 14063A   26157.15828450 -.00000025  00000+0  56628-4 0  9994
2 40275 100.7711 308.2489 0006091 210.5823 149.4933 13.15530683558363
ASNARO                  
1 40298U 14070A   26157.55591904  .00010963  00000+0  52239-3 0  9996
2 40298  97.3450 233.9592 0004569 201.9188 158.1853 15.19278800642395
YAOGAN-24               
1 40310U 14072A   26157.64373299  .00000756  00000+0  11690-3 0  9993
2 40310  98.1481 294.8933 0012791 301.2045  58.7910 14.76209570622162
CBERS 4                 
1 40336U 14079A   26157.58191062  .00000201  00000+0  84465-4 0  9993
2 40336  98.3531 214.7460 0002068  73.9931 286.1482 14.35506703602439
YAOGAN-26               
1 40362U 14088A   26157.59104572  .00009632  00000+0  19299-3 0  9992
2 40362  97.0650 158.0511 0006697  90.9034 269.2984 15.46904875636068
SMAP                    
1 40376U 15003A   26157.54990298  .00000492  00000+0  10427-3 0  9997
2 40376  98.1276 164.7952 0001261  91.6170 268.5177 14.63357344606067
KOMPSAT-3A              
1 40536U 15014A   26157.61541767  .00028005  00000+0  41312-3 0  9995
2 40536  97.6890 148.2090 0055572 213.0313 146.7465 15.53512140620176
SENTINEL-2A             
1 40697U 15028A   26157.58531682  .00000182  00000+0  86040-4 0  9993
2 40697  98.5681 232.5871 0001086  85.5004 274.6303 14.30821241572218
GAOFEN-8                
1 40701U 15030A   26157.60067654  .00036211  00000+0  75172-3 0  9993
2 40701  97.6916 350.3383 0008023 225.8343 134.2246 15.45578335609819
CARBONITE 1 (CBNT-1)    
1 40718U 15032D   26157.66089134  .00002435  00000+0  30135-3 0  9997
2 40718  97.6506 336.1686 0013871 335.3674  24.6876 14.83556943587785
YAOGAN-27               
1 40878U 15040A   26157.61370435  .00000125  00000+0  44099-3 0  9993
2 40878 100.1154 144.4558 0007442 237.2105 122.8292 13.16070430516271
GAOFEN-9 01             
1 40894U 15047A   26157.60344203  .00001051  00000+0  13520-3 0  9995
2 40894  97.6285 193.7788 0027551 171.6397 188.5282 14.82863611578623
YAOGAN-28               
1 41026U 15064A   26157.64381436  .00008462  00000+0  31885-3 0  9992
2 41026  97.3065 296.1224 0009716 222.0442 138.0053 15.27282610589073
YAOGAN-29               
1 41038U 15069A   26157.65276084  .00001129  00000+0  14535-3 0  9999
2 41038  98.0029 186.2692 0002998  70.6560 289.4977 14.83079423569065
KENT RIDGE 1            
1 41167U 15077B   26157.16161409  .00004828  00000+0  16723-3 0  9991
2 41167  14.9812 347.9786 0008308  82.2987 277.8279 15.23064317579415
GAOFEN-4                
1 41194U 15083A   26157.58227375 -.00000321  00000+0  00000+0 0  9991
2 41194   0.3296  83.7646 0004357 108.9334  17.6044  1.00269232 38426
JASON-3                 
1 41240U 16002A   26157.59487036 -.00000053  00000+0  37967-4 0  9997
2 41240  66.0390 148.1044 0008594 273.2081  86.7954 12.87627761485887
SENTINEL-3A             
1 41335U 16011A   26157.62695548  .00000127  00000+0  70466-4 0  9997
2 41335  98.6250 225.1618 0001340 104.7871 255.3459 14.26737149536550
ZIYUAN 3-02 (ZY 3-02)   
1 41556U 16033A   26157.60078580  .00006550  00000+0  29467-3 0  9995
2 41556  97.3831 233.5773 0011783 331.6536  28.4057 15.21379433556371
CARTOSAT-2C             
1 41599U 16040A   26157.58818385  .00004629  00000+0  22274-3 0  9996
2 41599  97.4481 217.7117 0009565 164.9487 195.2034 15.19231812552103
